FLOCK 4BE-18            
1 60480U 24149N   26199.15758147  .00009370  00000+0  21615-3 0  9999
2 60480  97.3722 283.2312 0005194 135.8306 224.3357 15.42771381107087
FLOCK 4BE-7             
1 60481U 24149P   26199.19314204  .00015144  00000+0  36237-3 0  9998
2 60481  97.3749 282.5528 0004464 140.9540 219.2030 15.41545020107027
TOMORROW-S2             
1 60485U 24149T   26199.17249721  .00004005  00000+0  12747-3 0  9995
2 60485  97.3808 280.0736 0004047 141.6081 218.5451 15.33165594106838
FLOCK 4BE-36            
1 60486U 24149U   26199.17730125  .00009635  00000+0  21613-3 0  9995
2 60486  97.3738 283.9959 0005026 144.5500 215.6083 15.43602509107132
FLOCK 4BE-25            
1 60487U 24149V   26199.16243593  .00007882  00000+0  20231-3 0  9990
2 60487  97.3790 282.5390 0003807 135.9568 224.1982 15.39594007107005
FLOCK 4BE-31            
1 60488U 24149W   26199.17798151  .00011298  00000+0  23955-3 0  9999
2 60488  97.3790 284.9496 0003875 143.4483 216.7031 15.45231114107167
FLOCK 4BE-20            
1 60489U 24149X   26199.14097298  .00007602  00000+0  19987-3 0  9995
2 60489  97.3685 281.3184 0005249 145.6426 214.5160 15.38862268106973
FLOCK 4BE-23            
1 60490U 24149Y   26199.13971738  .00007361  00000+0  19646-3 0  9990
2 60490  97.3771 281.7092 0004893 148.1864 211.9678 15.38412148106952
FLOCK 4BE-17            
1 60492U 24149AA  26199.14540861  .00008739  00000+0  21659-3 0  9999
2 60492  97.3761 282.7765 0004566 139.3551 220.8037 15.40625414107025
NUSAT-50 (NANCY ROMAN)  
1 60493U 24149AB  26199.16639763  .00004931  00000+0  17055-3 0  9997
2 60493  97.3777 280.2154 0004872  94.7005 265.4792 15.30349302106868
FLOCK 4BE-22            
1 60494U 24149AC  26199.16375267  .00009405  00000+0  22226-3 0  9991
2 60494  97.3726 283.0367 0004873 145.7284 214.4279 15.42043725107078
FLOCK 4BE-34            
1 60495U 24149AD  26199.18138506  .00009020  00000+0  21352-3 0  9999
2 60495  97.3777 283.8962 0005075 153.1118 207.0393 15.42006823107105
TYCHE                   
1 60496U 24149AE  26199.15389114  .00002236  00000+0  90325-4 0  9999
2 60496  97.3745 276.5526 0003236 159.2810 200.8560 15.25790809106627
FLOCK 4BE-32            
1 60497U 24149AF  26199.19324338  .00010409  00000+0  23686-3 0  9997
2 60497  97.3712 283.4767 0005159 150.1202 210.0342 15.43150411107112
NUSAT-48 (HENRIETTA LE*)
1 60498U 24149AG  26199.15550142  .00004631  00000+0  16056-3 0  9991
2 60498  97.3910 280.5019 0005034 150.1456 210.0073 15.30303449106874
NUSAT-49 (KLARA DAN VO*)
1 60500U 24149AJ  26198.21718721  .00001697  00000+0  61424-4 0  9999
2 60500  97.3781 279.3028 0002525 161.7492 198.3840 15.29800004106721
FLOCK 4BE-11            
1 60501U 24149AK  26199.17173051  .00010418  00000+0  23085-3 0  9998
2 60501  97.3690 283.7144 0005223 150.3075 209.8471 15.43941005107135
YAM-7                   
1 60504U 24149AN  26199.14739332  .00003748  00000+0  12305-3 0  9999
2 60504  97.3772 279.2781 0003989 159.5758 200.5644 15.32205076106792
FLOCK 4BE-24            
1 60505U 24149AP  26199.21978323  .00011616  00000+0  25513-3 0  9991
2 60505  97.3705 284.0329 0005240 160.7672 199.3775 15.44175149107153
LUR-1                   
1 60506U 24149AQ  26199.17258625  .00003640  00000+0  12614-3 0  9999
2 60506  97.3726 277.7826 0004300 172.4247 187.7060 15.30469031106712
TANAGER-1               
1 60507U 24149AR  26199.19522321  .00000178  00000+0  57620-5 0  9990
2 60507  97.2314 293.3122 0001821 145.1446 214.9922 15.43943177107826
EAGLEEYE                
1 60508U 24149AS  26199.19322799  .00092776  00000+0  56042-3 0  9998
2 60508  97.3714 294.3908 0004820 179.0752 181.0524 15.77347313107811
FLOCK 4BE-29            
1 60509U 24149AT  26199.14321410  .00025729  00000+0  53484-3 0  9994
2 60509  97.3803 285.5095 0003730 168.9385 191.1947 15.45631927107192
TRANSPORTER-11 OBJECT AU
1 60510U 24149AU  26199.16905027  .00008230  00000+0  20146-3 0  9997
2 60510  97.3720 283.1537 0004563 159.2458 200.8975 15.41025449107085
FLOCK 4BE-2             
1 60511U 24149AV  26197.80093516  .00043143  00000+0  61823-3 0  9997
2 60511  97.3829 286.0140 0005363 168.9366 191.2008 15.56038813107100
FLOCK 4BE-13            
1 60512U 24149AW  26199.16886059  .00007989  00000+0  18525-3 0  9990
2 60512  97.3712 283.9184 0005287 147.3105 212.8471 15.42665952107146
FLOCK 4BE-27            
1 60513U 24149AX  26199.16493253  .00004939  00000+0  14807-3 0  9992
2 60513  97.3817 281.0406 0004321 172.0596 188.0716 15.34948340106899
