OBJECT_NAME,OBJECT_ID,EPOCH,MEAN_MOTION,ECCENTRICITY,INCLINATION,RA_OF_ASC_NODE,ARG_OF_PERICENTER,MEAN_ANOMALY,EPHEMERIS_TYPE,CLASSIFICATION_TYPE,NORAD_CAT_ID,ELEMENT_SET_NO,REV_AT_EPOCH,BSTAR,MEAN_MOTION_DOT,MEAN_MOTION_DDOT
FLOCK 4BE-18,2024-149N,2026-07-18T03:46:55.039008,15.42771381,.00051944,97.3722,283.2312,135.8306,224.3357,0,U,60480,999,10708,.21615481E-3,.937E-4,0
FLOCK 4BE-7,2024-149P,2026-07-18T04:38:07.472256,15.41545020,.00044647,97.3749,282.5528,140.9540,219.2030,0,U,60481,999,10702,.36237228E-3,.15144E-3,0
TOMORROW-S2,2024-149T,2026-07-18T04:08:23.758944,15.33165594,.00040477,97.3808,280.0736,141.6081,218.5451,0,U,60485,999,10683,.12746977E-3,.4005E-4,0
FLOCK 4BE-36,2024-149U,2026-07-18T04:15:18.828000,15.43602509,.00050265,97.3738,283.9959,144.5500,215.6083,0,U,60486,999,10713,.21612568E-3,.9635E-4,0
FLOCK 4BE-25,2024-149V,2026-07-18T03:53:54.464352,15.39594007,.00038073,97.3790,282.5390,135.9568,224.1982,0,U,60487,999,10700,.20231486E-3,.7882E-4,0
FLOCK 4BE-31,2024-149W,2026-07-18T04:16:17.602464,15.45231114,.00038752,97.3790,284.9496,143.4483,216.7031,0,U,60488,999,10716,.23955254E-3,.11298E-3,0
FLOCK 4BE-20,2024-149X,2026-07-18T03:23:00.065472,15.38862268,.00052498,97.3685,281.3184,145.6426,214.5160,0,U,60489,999,10697,.19986818E-3,.7602E-4,0
FLOCK 4BE-23,2024-149Y,2026-07-18T03:21:11.581632,15.38412148,.00048938,97.3771,281.7092,148.1864,211.9678,0,U,60490,999,10695,.19645545E-3,.7361E-4,0
FLOCK 4BE-17,2024-149AA,2026-07-18T03:29:23.303904,15.40625414,.00045669,97.3761,282.7765,139.3551,220.8037,0,U,60492,999,10702,.21658876E-3,.8739E-4,0
NUSAT-50 (NANCY ROMAN),2024-149AB,2026-07-18T03:59:36.755232,15.30349302,.00048721,97.3777,280.2154,94.7005,265.4792,0,U,60493,999,10686,.17055012E-3,.4931E-4,0
FLOCK 4BE-22,2024-149AC,2026-07-18T03:55:48.230688,15.42043725,.00048735,97.3726,283.0367,145.7284,214.4279,0,U,60494,999,10707,.22226487E-3,.9405E-4,0
FLOCK 4BE-34,2024-149AD,2026-07-18T04:21:11.669184,15.42006823,.00050757,97.3777,283.8962,153.1118,207.0393,0,U,60495,999,10710,.21352135E-3,.902E-4,0
TYCHE,2024-149AE,2026-07-18T03:41:36.194496,15.25790809,.00032363,97.3745,276.5526,159.2810,200.8560,0,U,60496,999,10662,.90325106E-4,.2236E-4,0
FLOCK 4BE-32,2024-149AF,2026-07-18T04:38:16.228032,15.43150411,.00051594,97.3712,283.4767,150.1202,210.0342,0,U,60497,999,10711,.23685819E-3,.10409E-3,0
NUSAT-48 (HENRIETTA LEAVITT),2024-149AG,2026-07-18T03:43:55.322688,15.30303449,.00050342,97.3910,280.5019,150.1456,210.0073,0,U,60498,999,10687,.16056079E-3,.4631E-4,0
NUSAT-49 (KLARA DAN VON NEUMANN),2024-149AJ,2026-07-17T05:12:44.974944,15.29800004,.0002525,97.3781,279.3028,161.7492,198.3840,0,U,60500,999,10672,.61424254E-4,.1697E-4,0
FLOCK 4BE-11,2024-149AK,2026-07-18T04:07:17.516064,15.43941005,.00052238,97.3690,283.7144,150.3075,209.8471,0,U,60501,999,10713,.23084803E-3,.10418E-3,0
YAM-7,2024-149AN,2026-07-18T03:32:14.782848,15.32205076,.00039897,97.3772,279.2781,159.5758,200.5644,0,U,60504,999,10679,.12305103E-3,.3748E-4,0
FLOCK 4BE-24,2024-149AP,2026-07-18T05:16:29.271072,15.44175149,.00052402,97.3705,284.0329,160.7672,199.3775,0,U,60505,999,10715,.25513117E-3,.11616E-3,0
LUR-1,2024-149AQ,2026-07-18T04:08:31.452000,15.30469031,.00043,97.3726,277.7826,172.4247,187.7060,0,U,60506,999,10671,.12614066E-3,.364E-4,0
TANAGER-1,2024-149AR,2026-07-18T04:41:07.285344,15.43943177,.00018216,97.2314,293.3122,145.1446,214.9922,0,U,60507,999,10782,.5762033E-5,.178E-5,0
EAGLEEYE,2024-149AS,2026-07-18T04:38:14.898336,15.77347313,.00048209,97.3714,294.3908,179.0752,181.0524,0,U,60508,999,10781,.56042141E-3,.92776E-3,0
FLOCK 4BE-29,2024-149AT,2026-07-18T03:26:13.698240,15.45631927,.00037306,97.3803,285.5095,168.9385,191.1947,0,U,60509,999,10719,.53483861E-3,.25729E-3,0
TRANSPORTER-11 OBJECT AU,2024-149AU,2026-07-18T04:03:25.943328,15.41025449,.00045637,97.3720,283.1537,159.2458,200.8975,0,U,60510,999,10708,.20145535E-3,.823E-4,0
FLOCK 4BE-2,2024-149AV,2026-07-16T19:13:20.797824,15.56038813,.00053637,97.3829,286.0140,168.9366,191.2008,0,U,60511,999,10710,.61822673E-3,.43143E-3,0
FLOCK 4BE-13,2024-149AW,2026-07-18T04:03:09.554976,15.42665952,.0005287,97.3712,283.9184,147.3105,212.8471,0,U,60512,999,10714,.18525293E-3,.7989E-4,0
FLOCK 4BE-27,2024-149AX,2026-07-18T03:57:30.170592,15.34948340,.00043216,97.3817,281.0406,172.0596,188.0716,0,U,60513,999,10689,.14806807E-3,.4939E-4,0
